H1 CPF 01  gfz 2021 04 26 12  6162 terrasarx 
H2 0702601  6201 31698    2021 04 26 12 59 42 2021 05 01 00 00 42   120 1 1  0 0 0
H9
10 0 59330  63342.000000  0     756809.665    977870.041  -6783317.015
10 0 59330  63462.000000  0    1656667.999   1040879.918  -6611639.260
10 0 59330  63582.000000  0    2528638.269   1070355.576  -6324612.464
10 0 59330  63702.000000  0    3357003.800   1066401.124  -5927180.930
10 0 59330  63822.000000  0    4126784.707   1029964.981  -5426202.419
10 0 59330  63942.000000  0    4824008.275    962810.032  -4830341.445
10 0 59330  64062.000000  0    5435967.154    867465.947  -4149930.964
10 0 59330  64182.000000  0    5951458.534    747163.804  -3396802.914
10 0 59330  64302.000000  0    6360999.175    605753.939  -2584090.628
10 0 59330  64422.000000  0    6657012.656    447609.176  -1726005.154
10 0 59330  64542.000000  0    6833982.868    277514.672   -837586.759
10 0 59330  64662.000000  0    6888567.003    100547.277     65562.175
10 0 59330  64782.000000  0    6819667.220    -78052.060    967556.488
10 0 59330  64902.000000  0    6628458.159   -253011.142   1852515.749
10 0 59330  65022.000000  0    6318368.298   -419159.972   2704853.312
10 0 59330  65142.000000  0    5895014.549   -571561.943   3509559.857
10 0 59330  65262.000000  0    5366092.941   -705638.656   4252473.238
10 0 59330  65382.000000  0    4741231.215   -817285.754   4920531.723
10 0 59330  65502.000000  0    4031802.570   -902977.548   5502005.003
10 0 59330  65622.000000  0    3250708.221   -959855.756   5986697.308
10 0 59330  65742.000000  0    2412134.608   -985802.950   6366121.667
10 0 59330  65862.000000  0    1531290.068   -979498.485   6633642.670
10 0 59330  65982.000000  0     624124.776   -940456.200   6784587.752
10 0 59330  66102.000000  0    -292960.695   -869042.344   6816322.954
10 0 59330  66222.000000  0   -1203411.465   -766474.412   6728294.690
10 0 59330  66342.000000  0   -2090815.675   -634800.496   6522038.379
10 0 59330  66462.000000  0   -2939198.660   -476859.192   6201153.384
10 0 59330  66582.000000  0   -3733310.608   -296220.909   5771245.486
10 0 59330  66702.000000  0   -4458904.109    -97111.648   5239835.537
10 0 59330  66822.000000  0   -5102995.908    115679.657   4616233.860
10 0 59330  66942.000000  0   -5654107.120    336908.172   3911381.924
10 0 59330  67062.000000  0   -6102476.684    560993.198   3137663.366
10 0 59330  67182.000000  0   -6440244.081    782148.435   2308688.138
10 0 59330  67302.000000  0   -6661596.953    994519.592   1439051.113
10 0 59330  67422.000000  0   -6762879.471   1192325.452    544070.298
10 0 59330  67542.000000  0   -6742657.811   1369999.508   -360491.056
10 0 59330  67662.000000  0   -6601739.600   1522328.105  -1258711.526
10 0 59330  67782.000000  0   -6343148.082   1644580.983  -2134799.931
10 0 59330  67902.000000  0   -5972053.454   1732632.635  -2973380.281
10 0 59330  68022.000000  0   -5495660.365   1783070.167  -3759768.265
10 0 59330  68142.000000  0   -4923055.655   1793284.158  -4480230.111
10 0 59330  68262.000000  0   -4265022.597   1761541.851  -5122219.543
10 0 59330  68382.000000  0   -3533826.540   1687040.992  -5674589.247
10 0 59330  68502.000000  0   -2742978.523   1569943.703  -6127774.631
10 0 59330  68622.000000  0   -1906980.965   1411389.568  -6473949.208
10 0 59330  68742.000000  0   -1041059.123   1213488.629  -6707148.016
10 0 59330  68862.000000  0    -160886.335    979293.779  -6823358.819
10 0 59330  68982.000000  0     717693.178    712754.337  -6820582.855
10 0 59330  69102.000000  0    1578942.031    418650.915  -6698867.720
10 0 59330  69222.000000  0    2407506.416    102511.424  -6460306.809
10 0 59330  69342.000000  0    3188683.881   -229489.445  -6109007.113
10 0 59330  69462.000000  0    3908681.350   -570646.512  -5651025.398
10 0 59330  69582.000000  0    4554856.921   -913854.399  -5094273.603
10 0 59330  69702.000000  0    5115945.808  -1251750.457  -4448394.814
10 0 59330  69822.000000  0    5582264.252  -1576867.726  -3724606.861
10 0 59330  69942.000000  0    5945886.478  -1881794.539  -2935516.419
10 0 59330  70062.000000  0    6200790.952  -2159338.024  -2094905.376
10 0 59330  70182.000000  0    6342971.465  -2402687.647  -1217492.266
10 0 59330  70302.000000  0    6370509.923  -2605574.223   -318673.470
10 0 59330  70422.000000  0    6283608.590  -2762421.018    585751.873
10 0 59330  70542.000000  0    6084580.291  -2868482.190   1479866.088
10 0 59330  70662.000000  0    5777795.593  -2919965.315   2347922.813
10 0 59330  70782.000000  0    5369587.180  -2914134.815   3174633.711
10 0 59330  70902.000000  0    4868115.515  -2849392.525   3945445.211
10 0 59330  71022.000000  0    4283199.318  -2725333.667   4646798.381
10 0 59330  71142.000000  0    3626117.299  -2542779.169   5266370.018
10 0 59330  71262.000000  0    2909381.451  -2303781.888   5793289.404
10 0 59330  71382.000000  0    2146491.223  -2011606.164   6218324.726
10 0 59330  71502.000000  0    1351673.958  -1670683.150   6534039.429
10 0 59330  71622.000000  0     539615.872  -1286542.408   6734916.428
10 0 59330  71742.000000  0    -274811.178   -865720.703   6817448.512
10 0 59330  71862.000000  0   -1076821.624   -415649.779   6780194.899
10 0 59330  71982.000000  0   -1851983.242     55474.612   6623804.558
10 0 59330  72102.000000  0   -2586475.699    538841.494   6351005.764
10 0 59330  72222.000000  0   -3267336.861   1025188.505   5966562.005
10 0 59330  72342.000000  0   -3882693.425   1504978.165   5477194.571
10 0 59330  72462.000000  0   -4421972.731   1968584.078   4891471.772
10 0 59330  72582.000000  0   -4876091.452   2406484.111   4219664.594
10 0 59330  72702.000000  0   -5237615.639   2809456.657   3473570.072
10 0 59330  72822.000000  0   -5500889.478   3168774.842   2666306.190
10 0 59330  72942.000000  0   -5662130.475   3476395.321   1812081.394
10 0 59330  73062.000000  0   -5719488.675   3725137.744    925940.835
10 0 59330  73182.000000  0   -5673065.502   3908848.122     23493.847
10 0 59330  73302.000000  0   -5524893.436   4022542.608   -879368.777
10 0 59330  73422.000000  0   -5278877.194   4062528.728  -1766763.569
10 0 59330  73542.000000  0   -4940696.459   4026500.266  -2623103.773
10 0 59330  73662.000000  0   -4517672.226   3913602.407  -3433379.878
10 0 59330  73782.000000  0   -4018602.565   3724466.713  -4183425.809
10 0 59330  73902.000000  0   -3453572.660   3461216.222  -4860164.984
10 0 59330  74022.000000  0   -2833744.142   3127440.811  -5451832.589
10 0 59330  74142.000000  0   -2171130.980   2728144.884  -5948171.323
10 0 59330  74262.000000  0   -1478363.581   2269668.148  -6340600.090
10 0 59330  74382.000000  0    -768447.042   1759580.536  -6622350.317
10 0 59330  74502.000000  0     -54519.789   1206555.794  -6788571.357
10 0 59330  74622.000000  0     650384.367    620224.518  -6836404.696
10 0 59330  74742.000000  0    1333568.339     11009.824  -6765029.332
10 0 59330  74862.000000  0    1982896.167   -610054.453  -6575673.720
10 0 59330  74982.000000  0    2587003.043  -1231518.336  -6271596.237
10 0 59330  75102.000000  0    3135491.339  -1841721.485  -5858035.302
10 0 59330  75222.000000  0    3619108.584  -2429006.636  -5342129.035
10 0 59330  75342.000000  0    4029907.312  -2981940.831  -4732804.144
10 0 59330  75462.000000  0    4361379.862  -3489538.314  -4040630.885
10 0 59330  75582.000000  0    4608566.555  -3941479.398  -3277649.788
10 0 59330  75702.000000  0    4768137.165  -4328323.120  -2457170.580
10 0 59330  75822.000000  0    4838441.418  -4641707.994  -1593544.045
10 0 59330  75942.000000  0    4819526.991  -4874536.322   -701911.498
10 0 59330  76062.000000  0    4713122.492  -5021136.562    202064.725
10 0 59330  76182.000000  0    4522586.174  -5077398.332   1102482.950
10 0 59330  76302.000000  0    4252822.002  -5040876.974   1983490.875
10 0 59330  76422.000000  0    3910162.904  -4910863.881   2829573.434
10 0 59330  76542.000000  0    3502226.941  -4688422.618   3625833.560
10 0 59330  76662.000000  0    3037748.369  -4376388.308   4358260.876
10 0 59330  76782.000000  0    2526388.894  -3979330.786   5013981.480
10 0 59330  76902.000000  0    1978534.059  -3503483.327   5581484.451
10 0 59330  77022.000000  0    1405079.243  -2956638.939   6050822.072
10 0 59330  77142.000000  0     817210.092  -2348016.035   6413779.040
10 0 59330  77262.000000  0     226182.717  -1688098.437   6664009.808
10 0 59330  77382.000000  0    -356891.946   -988451.994   6797143.098
10 0 59330  77502.000000  0    -921255.844   -261519.974   6810854.143
10 0 59330  77622.000000  0   -1456701.342    479598.574   6704902.453
10 0 59330  77742.000000  0   -1953755.254   1221384.319   6481135.644
10 0 59330  77862.000000  0   -2403846.413   1950143.254   6143459.252
10 0 59330  77982.000000  0   -2799454.346   2652258.913   5697772.938
10 0 59330  78102.000000  0   -3134236.851   3314447.927   5151873.820
10 0 59330  78222.000000  0   -3403135.250   3924013.971   4515326.504
10 0 59330  78342.000000  0   -3602454.038   4469096.089   3799300.944
10 0 59330  78462.000000  0   -3729913.290   4938905.810   3016379.664
10 0 59330  78582.000000  0   -3784672.305   5323947.720   2180336.718
10 0 59330  78702.000000  0   -3767323.248   5616216.597   1305892.195
10 0 59330  78822.000000  0   -3679855.511   5809367.401    408448.833
10 0 59330  78942.000000  0   -3525592.445   5898855.559   -496186.313
10 0 59330  79062.000000  0   -3309099.448   5882040.424  -1392090.755
10 0 59330  79182.000000  0   -3036066.718   5758249.074  -2263517.380
10 0 59330  79302.000000  0   -2713167.672   5528798.639  -3095178.860
10 0 59330  79422.000000  0   -2347901.256   5196979.942  -3872518.971
10 0 59330  79542.000000  0   -1948421.283   4768001.935  -4581968.469
10 0 59330  79662.000000  0   -1523356.165   4248898.803  -5211177.424
10 0 59330  79782.000000  0   -1081625.305   3648405.596  -5749222.688
99
